[{"OBJECT_NAME":"STARLINK-35665","OBJECT_ID":"2025-257L","EPOCH":"2026-03-09T16:20:46.881888","MEAN_MOTION":15.3020338,"ECCENTRICITY":0.00013949,"INCLINATION":53.159,"RA_OF_ASC_NODE":216.9444,"ARG_OF_PERICENTER":66.0867,"MEAN_ANOMALY":294.028,"EPHEMERIS_TYPE":0,"CLASSIFICATION_TYPE":"U","NORAD_CAT_ID":66390,"ELEMENT_SET_NO":999,"REV_AT_EPOCH":1983,"BSTAR":0.00074799098,"MEAN_MOTION_DOT":0.00021862,"MEAN_MOTION_DDOT":0},{"OBJECT_NAME":"DELTA 1 DEB","OBJECT_ID":"1977-065EL","EPOCH":"2026-03-09T10:51:18.661248","MEAN_MOTION":14.3286909,"ECCENTRICITY":0.0430373,"INCLINATION":29.2548,"RA_OF_ASC_NODE":97.596,"ARG_OF_PERICENTER":297.4276,"MEAN_ANOMALY":58.3168,"EPHEMERIS_TYPE":0,"CLASSIFICATION_TYPE":"U","NORAD_CAT_ID":10478,"ELEMENT_SET_NO":999,"REV_AT_EPOCH":42332,"BSTAR":0.0017306922,"MEAN_MOTION_DOT":0.00013988,"MEAN_MOTION_DDOT":0}]
